KUIPER-00286
1 68590U 26072T   26114.51443429  .00017821  00000+0  48057-3 0  9996
2 68590  51.8734  76.4479 0004496 154.2680 205.8531 15.37864593  3125
KUIPER-00289
1 68591U 26072U   26114.53740039  .00016874  00000+0  48040-3 0  9995
2 68591  51.8662  76.5874 0010406 190.1480 169.9297 15.36178672  3125
KUIPER-00290
1 68592U 26072V   26114.53671154  .00016412  00000+0  46719-3 0  9996
2 68592  51.8647  76.5807 0010687 187.1982 172.8852 15.36200356  3124
KUIPER-00293
1 68593U 26072W   26114.47687558  .00017862  00000+0  51519-3 0  9999
2 68593  51.8650  76.9283 0011058 192.3495 167.7222 15.35720048  3118
KUIPER-00294
1 68594U 26072X   26114.72886713  .00017266  00000+0  48717-3 0  9996
2 68594  51.8684  75.6242 0009371 188.0433 172.0404 15.36449868  3150
KUIPER-00296
1 68595U 26072Y   26114.52873698  .00020092  00000+0  55821-3 0  9998
2 68595  51.8701  76.5374 0008314 180.6054 179.4924 15.36833012  3123
KUIPER-00297
1 68596U 26072Z   26114.47043736  .00003237  00000+0  10101-3 0  9999
2 68596  51.8635  76.8846 0009524 185.9949 174.0925 15.36226283  3119
KUIPER-00300
1 68597U 26072AA  26114.52618707  .00019365  00000+0  53504-3 0  9995
2 68597  51.8677  76.5182 0007994 181.6062 178.4900 15.37032038  3120
KUIPER-00301
1 68598U 26072AB  26114.53040655  .00020138  00000+0  56178-3 0  9998
2 68598  51.8654  76.5422 0008486 184.1093 175.9825 15.36702442  3122
KUIPER-00304
1 68599U 26072AC  26114.53158821  .00017547  00000+0  49243-3 0  9999
2 68599  51.8671  76.5509 0009048 183.3607 176.7320 15.36610685  3121
KUIPER-00317
1 68600U 26072AD  26114.52774297  .00020470  00000+0  56804-3 0  9992
2 68600  51.8688  76.5296 0008578 176.4866 183.6182 15.36854983  3126
KUIPER-00320
1 68601U 26072AE  26114.53834164  .00020765  00000+0  59092-3 0  9993
2 68601  51.8612  76.5852 0010721 189.1409 170.9383 15.36039429  3121
STARLINK-37135
1 68602U 26073A   26114.49353887  .00180024  00000+0  11798-2 0  9993
2 68602  97.2852 312.4765 0001330  85.7133 274.4284 15.75243448  2768
STARLINK-37189
1 68603U 26073B   26114.53007091 -.00535293  00000+0 -30509-2 0  9997
2 68603  97.2848 312.5791 0001217 359.1102   1.0163 15.80220571  2771
STARLINK-37130
1 68604U 26073C   26114.73741294  .00132391  00000+0  87304-3 0  9996
2 68604  97.2853 312.7563 0001204  92.0408 268.0995 15.75236151  2802
STARLINK-37131
1 68605U 26073D   26114.53060172 -.00761575  00000+0 -53893-2 0  9993
2 68605  97.2846 312.5791 0000809   4.7311 355.3962 15.75974065  2772
STARLINK-37253
1 68606U 26073E   26114.52773316  .00217162  00000+0  11023-2 0  9999
2 68606  97.2840 312.5824 0001290  66.1145 294.0258 15.80899637  2770
