[{"OBJECT_NAME":"KUIPER-00286","OBJECT_ID":"2026-072T","EPOCH":"2026-04-24T12:20:47.122656","MEAN_MOTION":15.37864593,"ECCENTRICITY":0.0004496,"INCLINATION":51.8734,"RA_OF_ASC_NODE":76.4479,"ARG_OF_PERICENTER":154.268,"MEAN_ANOMALY":205.8531,"EPHEMERIS_TYPE":0,"CLASSIFICATION_TYPE":"U","NORAD_CAT_ID":68590,"ELEMENT_SET_NO":999,"REV_AT_EPOCH":312,"BSTAR":0.00048057,"MEAN_MOTION_DOT":0.00017821,"MEAN_MOTION_DDOT":0},{"OBJECT_NAME":"KUIPER-00289","OBJECT_ID":"2026-072U","EPOCH":"2026-04-24T12:53:51.393696","MEAN_MOTION":15.36178672,"ECCENTRICITY":0.0010406,"INCLINATION":51.8662,"RA_OF_ASC_NODE":76.5874,"ARG_OF_PERICENTER":190.148,"MEAN_ANOMALY":169.9297,"EPHEMERIS_TYPE":0,"CLASSIFICATION_TYPE":"U","NORAD_CAT_ID":68591,"ELEMENT_SET_NO":999,"REV_AT_EPOCH":312,"BSTAR":0.0004804,"MEAN_MOTION_DOT":0.00016874,"MEAN_MOTION_DDOT":0},{"OBJECT_NAME":"KUIPER-00290","OBJECT_ID":"2026-072V","EPOCH":"2026-04-24T12:52:51.877056","MEAN_MOTION":15.36200356,"ECCENTRICITY":0.0010687,"INCLINATION":51.8647,"RA_OF_ASC_NODE":76.5807,"ARG_OF_PERICENTER":187.1982,"MEAN_ANOMALY":172.8852,"EPHEMERIS_TYPE":0,"CLASSIFICATION_TYPE":"U","NORAD_CAT_ID":68592,"ELEMENT_SET_NO":999,"REV_AT_EPOCH":312,"BSTAR":0.00046719,"MEAN_MOTION_DOT":0.00016412,"MEAN_MOTION_DDOT":0},{"OBJECT_NAME":"KUIPER-00293","OBJECT_ID":"2026-072W","EPOCH":"2026-04-24T11:26:42.050112","MEAN_MOTION":15.35720048,"ECCENTRICITY":0.0011058,"INCLINATION":51.865,"RA_OF_ASC_NODE":76.9283,"ARG_OF_PERICENTER":192.3495,"MEAN_ANOMALY":167.7222,"EPHEMERIS_TYPE":0,"CLASSIFICATION_TYPE":"U","NORAD_CAT_ID":68593,"ELEMENT_SET_NO":999,"REV_AT_EPOCH":311,"BSTAR":0.00051519,"MEAN_MOTION_DOT":0.00017862,"MEAN_MOTION_DDOT":0},{"OBJECT_NAME":"KUIPER-00294","OBJECT_ID":"2026-072X","EPOCH":"2026-04-24T17:29:34.120032","MEAN_MOTION":15.36449868,"ECCENTRICITY":0.0009371,"INCLINATION":51.8684,"RA_OF_ASC_NODE":75.6242,"ARG_OF_PERICENTER":188.0433,"MEAN_ANOMALY":172.0404,"EPHEMERIS_TYPE":0,"CLASSIFICATION_TYPE":"U","NORAD_CAT_ID":68594,"ELEMENT_SET_NO":999,"REV_AT_EPOCH":315,"BSTAR":0.00048717,"MEAN_MOTION_DOT":0.00017266,"MEAN_MOTION_DDOT":0},{"OBJECT_NAME":"KUIPER-00296","OBJECT_ID":"2026-072Y","EPOCH":"2026-04-24T12:41:22.875072","MEAN_MOTION":15.36833012,"ECCENTRICITY":0.0008314,"INCLINATION":51.8701,"RA_OF_ASC_NODE":76.5374,"ARG_OF_PERICENTER":180.6054,"MEAN_ANOMALY":179.4924,"EPHEMERIS_TYPE":0,"CLASSIFICATION_TYPE":"U","NORAD_CAT_ID":68595,"ELEMENT_SET_NO":999,"REV_AT_EPOCH":312,"BSTAR":0.00055821,"MEAN_MOTION_DOT":0.00020092,"MEAN_MOTION_DDOT":0},{"OBJECT_NAME":"KUIPER-00297","OBJECT_ID":"2026-072Z","EPOCH":"2026-04-24T11:17:25.787904","MEAN_MOTION":15.36226283,"ECCENTRICITY":0.0009524,"INCLINATION":51.8635,"RA_OF_ASC_NODE":76.8846,"ARG_OF_PERICENTER":185.9949,"MEAN_ANOMALY":174.0925,"EPHEMERIS_TYPE":0,"CLASSIFICATION_TYPE":"U","NORAD_CAT_ID":68596,"ELEMENT_SET_NO":999,"REV_AT_EPOCH":311,"BSTAR":0.00010101,"MEAN_MOTION_DOT":3.237e-5,"MEAN_MOTION_DDOT":0},{"OBJECT_NAME":"KUIPER-00300","OBJECT_ID":"2026-072AA","EPOCH":"2026-04-24T12:37:42.562848","MEAN_MOTION":15.37032038,"ECCENTRICITY":0.0007994,"INCLINATION":51.8677,"RA_OF_ASC_NODE":76.5182,"ARG_OF_PERICENTER":181.6062,"MEAN_ANOMALY":178.49,"EPHEMERIS_TYPE":0,"CLASSIFICATION_TYPE":"U","NORAD_CAT_ID":68597,"ELEMENT_SET_NO":999,"REV_AT_EPOCH":312,"BSTAR":0.00053504,"MEAN_MOTION_DOT":0.00019365,"MEAN_MOTION_DDOT":0},{"OBJECT_NAME":"KUIPER-00301","OBJECT_ID":"2026-072AB","EPOCH":"2026-04-24T12:43:47.125920","MEAN_MOTION":15.36702442,"ECCENTRICITY":0.0008486,"INCLINATION":51.8654,"RA_OF_ASC_NODE":76.5422,"ARG_OF_PERICENTER":184.1093,"MEAN_ANOMALY":175.9825,"EPHEMERIS_TYPE":0,"CLASSIFICATION_TYPE":"U","NORAD_CAT_ID":68598,"ELEMENT_SET_NO":999,"REV_AT_EPOCH":312,"BSTAR":0.00056178,"MEAN_MOTION_DOT":0.00020138,"MEAN_MOTION_DDOT":0},{"OBJECT_NAME":"KUIPER-00304","OBJECT_ID":"2026-072AC","EPOCH":"2026-04-24T12:45:29.221344","MEAN_MOTION":15.36610685,"ECCENTRICITY":0.0009048,"INCLINATION":51.8671,"RA_OF_ASC_NODE":76.5509,"ARG_OF_PERICENTER":183.3607,"MEAN_ANOMALY":176.732,"EPHEMERIS_TYPE":0,"CLASSIFICATION_TYPE":"U","NORAD_CAT_ID":68599,"ELEMENT_SET_NO":999,"REV_AT_EPOCH":312,"BSTAR":0.00049243,"MEAN_MOTION_DOT":0.00017547,"MEAN_MOTION_DDOT":0},{"OBJECT_NAME":"KUIPER-00317","OBJECT_ID":"2026-072AD","EPOCH":"2026-04-24T12:39:56.992608","MEAN_MOTION":15.36854983,"ECCENTRICITY":0.0008578,"INCLINATION":51.8688,"RA_OF_ASC_NODE":76.5296,"ARG_OF_PERICENTER":176.4866,"MEAN_ANOMALY":183.6182,"EPHEMERIS_TYPE":0,"CLASSIFICATION_TYPE":"U","NORAD_CAT_ID":68600,"ELEMENT_SET_NO":999,"REV_AT_EPOCH":312,"BSTAR":0.00056804,"MEAN_MOTION_DOT":0.0002047,"MEAN_MOTION_DDOT":0},{"OBJECT_NAME":"KUIPER-00320","OBJECT_ID":"2026-072AE","EPOCH":"2026-04-24T12:55:12.717696","MEAN_MOTION":15.36039429,"ECCENTRICITY":0.0010721,"INCLINATION":51.8612,"RA_OF_ASC_NODE":76.5852,"ARG_OF_PERICENTER":189.1409,"MEAN_ANOMALY":170.9383,"EPHEMERIS_TYPE":0,"CLASSIFICATION_TYPE":"U","NORAD_CAT_ID":68601,"ELEMENT_SET_NO":999,"REV_AT_EPOCH":312,"BSTAR":0.00059092,"MEAN_MOTION_DOT":0.00020765,"MEAN_MOTION_DDOT":0},{"OBJECT_NAME":"STARLINK-37135","OBJECT_ID":"2026-073A","EPOCH":"2026-04-24T11:50:41.758368","MEAN_MOTION":15.75243448,"ECCENTRICITY":0.000133,"INCLINATION":97.2852,"RA_OF_ASC_NODE":312.4765,"ARG_OF_PERICENTER":85.7133,"MEAN_ANOMALY":274.4284,"EPHEMERIS_TYPE":0,"CLASSIFICATION_TYPE":"U","NORAD_CAT_ID":68602,"ELEMENT_SET_NO":999,"REV_AT_EPOCH":276,"BSTAR":0.0011798,"MEAN_MOTION_DOT":0.00180024,"MEAN_MOTION_DDOT":0},{"OBJECT_NAME":"STARLINK-37189","OBJECT_ID":"2026-073B","EPOCH":"2026-04-24T12:43:18.126624","MEAN_MOTION":15.80220571,"ECCENTRICITY":0.0001217,"INCLINATION":97.2848,"RA_OF_ASC_NODE":312.5791,"ARG_OF_PERICENTER":359.1102,"MEAN_ANOMALY":1.0163,"EPHEMERIS_TYPE":0,"CLASSIFICATION_TYPE":"U","NORAD_CAT_ID":68603,"ELEMENT_SET_NO":999,"REV_AT_EPOCH":277,"BSTAR":-0.0030509,"MEAN_MOTION_DOT":-0.00535293,"MEAN_MOTION_DDOT":0},{"OBJECT_NAME":"STARLINK-37130","OBJECT_ID":"2026-073C","EPOCH":"2026-04-24T17:41:52.478016","MEAN_MOTION":15.75236151,"ECCENTRICITY":0.0001204,"INCLINATION":97.2853,"RA_OF_ASC_NODE":312.7563,"ARG_OF_PERICENTER":92.0408,"MEAN_ANOMALY":268.0995,"EPHEMERIS_TYPE":0,"CLASSIFICATION_TYPE":"U","NORAD_CAT_ID":68604,"ELEMENT_SET_NO":999,"REV_AT_EPOCH":280,"BSTAR":0.00087304,"MEAN_MOTION_DOT":0.00132391,"MEAN_MOTION_DDOT":0},{"OBJECT_NAME":"STARLINK-37131","OBJECT_ID":"2026-073D","EPOCH":"2026-04-24T12:44:03.988608","MEAN_MOTION":15.75974065,"ECCENTRICITY":8.09e-5,"INCLINATION":97.2846,"RA_OF_ASC_NODE":312.5791,"ARG_OF_PERICENTER":4.7311,"MEAN_ANOMALY":355.3962,"EPHEMERIS_TYPE":0,"CLASSIFICATION_TYPE":"U","NORAD_CAT_ID":68605,"ELEMENT_SET_NO":999,"REV_AT_EPOCH":277,"BSTAR":-0.0053893,"MEAN_MOTION_DOT":-0.00761575,"MEAN_MOTION_DDOT":0},{"OBJECT_NAME":"STARLINK-37253","OBJECT_ID":"2026-073E","EPOCH":"2026-04-24T12:39:56.145024","MEAN_MOTION":15.80899637,"ECCENTRICITY":0.000129,"INCLINATION":97.284,"RA_OF_ASC_NODE":312.5824,"ARG_OF_PERICENTER":66.1145,"MEAN_ANOMALY":294.0258,"EPHEMERIS_TYPE":0,"CLASSIFICATION_TYPE":"U","NORAD_CAT_ID":68606,"ELEMENT_SET_NO":999,"REV_AT_EPOCH":277,"BSTAR":0.0011023,"MEAN_MOTION_DOT":0.00217162,"MEAN_MOTION_DDOT":0}]
